SOYUZ-MS 27             
1 63520U 25072A   25127.51095612  .00007625  00000+0  14445-3 0  9998
2 63520  51.6346 148.5519 0002315  86.8352 273.2901 15.49392895  2482
TJS-17                  
1 63524U 25073A   25127.91283289 -.00000176  00000+0  00000+0 0  9999
2 63524   0.0418  37.4341 0000812  54.6631 255.2633  1.00270882   221
STARLINK-11669 [DTC]    
1 63548U 25075A   25128.24373535  .00000541  00000+0  59705-5 0  9995
2 63548  42.9966 197.2933 0001541 259.4543 100.6154 15.77860534  5177
STARLINK-11665 [DTC]    
1 63549U 25075B   25127.66915605  .00004012  00000+0  25912-4 0  9990
2 63549  42.9978 200.7252 0001571 273.1801  86.8889 15.77855600  5097
STARLINK-11667 [DTC]    
1 63550U 25075C   25128.23397989  .00000969  00000+0  84318-5 0  9998
2 63550  42.9980 197.2175 0001689 277.2601  82.8077 15.77857797  5172
STARLINK-11695 [DTC]    
1 63551U 25075D   25128.22910019  .00003407  00000+0  22432-4 0  9991
2 63551  42.9979 197.1771 0001573 271.5901  88.4789 15.77859092  5187
STARLINK-11685 [DTC]    
1 63552U 25075E   25128.22373514 -.00006981  00000+0 -37249-4 0  9999
2 63552  42.9991 197.1325 0001838 270.5856  89.4804 15.77871843  5186
STARLINK-11697 [DTC]    
1 63553U 25075F   25128.21886217  .00003614  00000+0  23623-4 0  9997
2 63553  42.9979 197.0933 0003376 294.6438  65.4080 15.77862479  5184
STARLINK-11680 [DTC]    
1 63554U 25075G   25127.51768760  .00006431  00000+0  39779-4 0  9991
2 63554  42.9993 201.2963 0001268 281.4889  78.5839 15.77862830  5070
STARLINK-11687 [DTC]    
1 63555U 25075H   25128.20910267  .00000983  00000+0  85151-5 0  9992
2 63555  42.9984 197.0133 0001801 255.4254 104.6417 15.77857398  5179
STARLINK-11626 [DTC]    
1 63556U 25075J   25128.25002315  .00001830  00000+0  13380-4 0  9990
2 63556  42.9997 196.6985 0001666 261.6003 358.9442 15.77856346  5189
STARLINK-11668 [DTC]    
1 63557U 25075K   25128.25002315  .00013290  00000+0  79140-4 0  9990
2 63557  42.9998 196.6291 0001747 261.8899  26.4079 15.77849417  5180
STARLINK-11657 [DTC]    
1 63558U 25075L   25128.25002315 -.00022436  00000+0 -12631-3 0  9996
2 63558  42.9999 196.5580 0001814 263.6057  52.4347 15.77870099  5180
STARLINK-11606 [DTC]    
1 63559U 25075M   25128.25002315 -.00026973  00000+0 -15251-3 0  9998
2 63559  43.0002 196.4902 0001530 260.6753  83.1133 15.77872376  5184
STARLINK-11592 [DTC]    
1 63560U 25075N   25127.91668981 -.00000007  00000+0  28296-5 0  9993
2 63560  43.0004 198.4487 0002035 283.1607 352.6339 15.77854332  5169
STARLINK-32953          
1 63561U 25075P   25127.91668981 -.01555423  00000+0 -35393-1 0  9995
2 63561  43.0000 201.2062 0001569 267.9946 334.9830 15.45295661  5174
STARLINK-32951          
1 63562U 25075Q   25127.91668981 -.00047855  00000+0 -81430-3 0  9995
2 63562  43.0001 200.0809 0001437 264.1107  72.8602 15.50598976  5181
STARLINK-32958          
1 63563U 25075R   25128.25002315  .00002643  00000+0  70527-4 0  9997
2 63563  42.9996 199.3489 0001703 266.0735   2.1907 15.40690372  5176
STARLINK-32928          
1 63564U 25075S   25127.91668981 -.01554720  00000+0 -30548-1 0  9994
2 63564  43.0001 201.1601 0001335 267.1731 354.6331 15.49479472  5174
STARLINK-32687          
1 63565U 25075T   25127.91668981 -.00050012  00000+0 -85145-3 0  9994
2 63565  43.0001 200.0767 0001539 265.1001  73.7879 15.50600158  5186
STARLINK-32950          
1 63566U 25075U   25127.91668981 -.01461101  00000+0 -19856-1 0  9995
2 63566  42.9999 199.0176 0001477 280.3037 124.6538 15.59731284  5172
STARLINK-32954          
1 63567U 25075V   25127.91668981 -.00063876  00000+0 -10903-2 0  9997
2 63567  43.0000 200.0675 0001053 268.5784  74.1210 15.50620013  5176
STARLINK-32940          
1 63568U 25075W   25127.91668981 -.00049224  00000+0 -83778-3 0  9990
2 63568  43.0001 200.0719 0001401 256.4619  84.3380 15.50603184  5178
STARLINK-32959          
1 63569U 25076A   25127.91668981 -.01495791  00000+0 -34542-1 0  9990
2 63569  42.9993 255.6182 0001636 285.3045 141.1245 15.44747117  4811
STARLINK-32956          
1 63570U 25076B   25128.25002315 -.01495601  00000+0 -34697-1 0  9994
2 63570  42.9994 253.6647 0001432 268.0099 222.4535 15.44614533  4965
STARLINK-33722          
1 63571U 25076C   25128.25002315 -.01451800  00000+0 -19908-1 0  9996
2 63571  42.9996 251.6387 0001320 257.5641 327.3227 15.59479866  5035
STARLINK-33739          
1 63572U 25076D   25128.25002315 -.01451907  00000+0 -19909-1 0  9996
2 63572  42.9995 251.6346 0001361 255.1383 331.6658 15.59480331  4980
STARLINK-33683          
1 63573U 25076E   25128.25002315 -.01451292  00000+0 -19900-1 0  9995
2 63573  42.9995 251.6239 0001393 261.0553 329.5829 15.59479505  4923
STARLINK-33724          
1 63574U 25076F   25127.55609112  .00148220  00000+0  10030-2 0  9993
2 63574  42.9980 255.5612 0002628 288.6352  71.4231 15.73812075  4952
